HULIANWANG DIGUI 16E    
1 67063U 25295E   25351.88908209  .00000222  00000+0  15931-3 0  9992
2 67063  50.0061 350.4927 0012480 270.4953  89.4531 14.25887056   850
HULIANWANG DIGUI 16F    
1 67064U 25295F   25351.95891405 -.00000679  00000+0 -21604-3 0  9992
2 67064  50.0038 350.1829 0012068 265.3497  94.6039 14.25947779   862
HULIANWANG DIGUI 16G    
1 67065U 25295G   25351.95889507  .00000204  00000+0  15144-3 0  9997
2 67065  50.0012 350.1811 0012279 271.3766  88.5741 14.25952795   862
HULIANWANG DIGUI 16H    
1 67066U 25295H   25351.95828083  .00000223  00000+0  15897-3 0  9996
2 67066  50.0014 350.1771 0011435 268.5838  91.3766 14.26095759   869
HULIANWANG DIGUI 16J    
1 67067U 25295J   25351.88766778 -.00000900  00000+0 -30613-3 0  9998
2 67067  50.0053 350.4773 0010875 272.1043  87.8625 14.26250814   852
XIWANG-5 02             
1 67069U 25296A   25351.70624069  .00010539  00000+0  53476-3 0  9997
2 67069  41.3523  73.2396 0014585  59.9158 300.3108 15.16768165   717
DEAR-5                  
1 67070U 25296B   25351.70559271  .00005338  00000+0  27520-3 0  9993
2 67070  41.3550  73.2371 0016255  61.0620 299.1829 15.16872240   700
KZ-11 R/B               
1 67071U 25296C   25351.62186305  .05014457  57523-5  50082-3 0  9993
2 67071  41.3363  75.7493 0723722 348.4472  10.0477 14.75942676   676
ELECTRON R/B            
1 67072U 25297A   25351.84398549  .02084429  22292-5  13603-2 0  9999
2 67072  97.4774 139.6405 0221073 213.9823 144.7123 15.82324265   597
RAISE-4                 
1 67073U 25297B   25351.87767198  .00003778  00000+0  25489-3 0  9992
2 67073  97.4852 139.2886 0011515 302.1913  57.8198 15.07167685   564
ELECTRON KICK STAGE R/B 
1 67074U 25297C   25351.89332251  .00258168  19424-4  14445-2 0  9992
2 67074  97.4818 139.5876 0204007 250.7721 107.1361 15.55416319   581
ZIYUAN 3-04 (ZY 3-04)   
1 67131U 25300A   25350.24622558  .00001984  00000+0  83268-4 0  9999
2 67131  97.5012  64.3338 0011082 268.6179  91.3789 15.24627585    26
