CCSDS_OMM_VERS = 2.0
CREATION_DATE  = 
ORIGINATOR     = 

OBJECT_NAME    = HULIANWANG DIGUI 16E
OBJECT_ID      = 2025-295E
CENTER_NAME    = EARTH
REF_FRAME      = TEME
TIME_SYSTEM    = UTC
MEAN_ELEMENT_THEORY = SGP/SGP4

EPOCH          = 2025-12-17T21:20:16.692576
MEAN_MOTION    = 14.25887056
ECCENTRICITY   = .00124802
INCLINATION    = 50.0061
RA_OF_ASC_NODE = 350.4927
ARG_OF_PERICENTER = 270.4953
MEAN_ANOMALY   = 89.4531

EPHEMERIS_TYPE = 0
CLASSIFICATION_TYPE = U
NORAD_CAT_ID   = 67063
ELEMENT_SET_NO = 999
REV_AT_EPOCH   = 85
BSTAR          = .15930884E-3
MEAN_MOTION_DOT = .222E-5
MEAN_MOTION_DDOT = 0

CCSDS_OMM_VERS = 2.0
CREATION_DATE  = 
ORIGINATOR     = 

OBJECT_NAME    = HULIANWANG DIGUI 16F
OBJECT_ID      = 2025-295F
CENTER_NAME    = EARTH
REF_FRAME      = TEME
TIME_SYSTEM    = UTC
MEAN_ELEMENT_THEORY = SGP/SGP4

EPOCH          = 2025-12-17T23:00:50.173920
MEAN_MOTION    = 14.25947779
ECCENTRICITY   = .00120685
INCLINATION    = 50.0038
RA_OF_ASC_NODE = 350.1829
ARG_OF_PERICENTER = 265.3497
MEAN_ANOMALY   = 94.6039

EPHEMERIS_TYPE = 0
CLASSIFICATION_TYPE = U
NORAD_CAT_ID   = 67064
ELEMENT_SET_NO = 999
REV_AT_EPOCH   = 86
BSTAR          = -.2160443E-3
MEAN_MOTION_DOT = -.679E-5
MEAN_MOTION_DDOT = 0

CCSDS_OMM_VERS = 2.0
CREATION_DATE  = 
ORIGINATOR     = 

OBJECT_NAME    = HULIANWANG DIGUI 16G
OBJECT_ID      = 2025-295G
CENTER_NAME    = EARTH
REF_FRAME      = TEME
TIME_SYSTEM    = UTC
MEAN_ELEMENT_THEORY = SGP/SGP4

EPOCH          = 2025-12-17T23:00:48.534048
MEAN_MOTION    = 14.25952795
ECCENTRICITY   = .00122795
INCLINATION    = 50.0012
RA_OF_ASC_NODE = 350.1811
ARG_OF_PERICENTER = 271.3766
MEAN_ANOMALY   = 88.5741

EPHEMERIS_TYPE = 0
CLASSIFICATION_TYPE = U
NORAD_CAT_ID   = 67065
ELEMENT_SET_NO = 999
REV_AT_EPOCH   = 86
BSTAR          = .15144029E-3
MEAN_MOTION_DOT = .204E-5
MEAN_MOTION_DDOT = 0

CCSDS_OMM_VERS = 2.0
CREATION_DATE  = 
ORIGINATOR     = 

OBJECT_NAME    = HULIANWANG DIGUI 16H
OBJECT_ID      = 2025-295H
CENTER_NAME    = EARTH
REF_FRAME      = TEME
TIME_SYSTEM    = UTC
MEAN_ELEMENT_THEORY = SGP/SGP4

EPOCH          = 2025-12-17T22:59:55.463712
MEAN_MOTION    = 14.26095759
ECCENTRICITY   = .00114356
INCLINATION    = 50.0014
RA_OF_ASC_NODE = 350.1771
ARG_OF_PERICENTER = 268.5838
MEAN_ANOMALY   = 91.3766

EPHEMERIS_TYPE = 0
CLASSIFICATION_TYPE = U
NORAD_CAT_ID   = 67066
ELEMENT_SET_NO = 999
REV_AT_EPOCH   = 86
BSTAR          = .15897322E-3
MEAN_MOTION_DOT = .223E-5
MEAN_MOTION_DDOT = 0

CCSDS_OMM_VERS = 2.0
CREATION_DATE  = 
ORIGINATOR     = 

OBJECT_NAME    = HULIANWANG DIGUI 16J
OBJECT_ID      = 2025-295J
CENTER_NAME    = EARTH
REF_FRAME      = TEME
TIME_SYSTEM    = UTC
MEAN_ELEMENT_THEORY = SGP/SGP4

EPOCH          = 2025-12-17T21:18:14.496192
MEAN_MOTION    = 14.26250814
ECCENTRICITY   = .00108759
INCLINATION    = 50.0053
RA_OF_ASC_NODE = 350.4773
ARG_OF_PERICENTER = 272.1043
MEAN_ANOMALY   = 87.8625

EPHEMERIS_TYPE = 0
CLASSIFICATION_TYPE = U
NORAD_CAT_ID   = 67067
ELEMENT_SET_NO = 999
REV_AT_EPOCH   = 85
BSTAR          = -.30612735E-3
MEAN_MOTION_DOT = -.9E-5
MEAN_MOTION_DDOT = 0

CCSDS_OMM_VERS = 2.0
CREATION_DATE  = 
ORIGINATOR     = 

OBJECT_NAME    = XIWANG-5 02
OBJECT_ID      = 2025-296A
CENTER_NAME    = EARTH
REF_FRAME      = TEME
TIME_SYSTEM    = UTC
MEAN_ELEMENT_THEORY = SGP/SGP4

EPOCH          = 2025-12-17T16:56:59.195616
MEAN_MOTION    = 15.16768165
ECCENTRICITY   = .00145859
INCLINATION    = 41.3523
RA_OF_ASC_NODE = 73.2396
ARG_OF_PERICENTER = 59.9158
MEAN_ANOMALY   = 300.3108

EPHEMERIS_TYPE = 0
CLASSIFICATION_TYPE = U
NORAD_CAT_ID   = 67069
ELEMENT_SET_NO = 999
REV_AT_EPOCH   = 71
BSTAR          = .53476127E-3
MEAN_MOTION_DOT = .10539E-3
MEAN_MOTION_DDOT = 0

CCSDS_OMM_VERS = 2.0
CREATION_DATE  = 
ORIGINATOR     = 

OBJECT_NAME    = DEAR-5
OBJECT_ID      = 2025-296B
CENTER_NAME    = EARTH
REF_FRAME      = TEME
TIME_SYSTEM    = UTC
MEAN_ELEMENT_THEORY = SGP/SGP4

EPOCH          = 2025-12-17T16:56:03.210144
MEAN_MOTION    = 15.16872240
ECCENTRICITY   = .00162558
INCLINATION    = 41.3550
RA_OF_ASC_NODE = 73.2371
ARG_OF_PERICENTER = 61.0620
MEAN_ANOMALY   = 299.1829

EPHEMERIS_TYPE = 0
CLASSIFICATION_TYPE = U
NORAD_CAT_ID   = 67070
ELEMENT_SET_NO = 999
REV_AT_EPOCH   = 70
BSTAR          = .27519633E-3
MEAN_MOTION_DOT = .5338E-4
MEAN_MOTION_DDOT = 0

CCSDS_OMM_VERS = 2.0
CREATION_DATE  = 
ORIGINATOR     = 

OBJECT_NAME    = KZ-11 R/B
OBJECT_ID      = 2025-296C
CENTER_NAME    = EARTH
REF_FRAME      = TEME
TIME_SYSTEM    = UTC
MEAN_ELEMENT_THEORY = SGP/SGP4

EPOCH          = 2025-12-17T14:55:28.967520
MEAN_MOTION    = 14.75942676
ECCENTRICITY   = .07237228
INCLINATION    = 41.3363
RA_OF_ASC_NODE = 75.7493
ARG_OF_PERICENTER = 348.4472
MEAN_ANOMALY   = 10.0477

EPHEMERIS_TYPE = 0
CLASSIFICATION_TYPE = U
NORAD_CAT_ID   = 67071
ELEMENT_SET_NO = 999
REV_AT_EPOCH   = 67
BSTAR          = .50081555E-3
MEAN_MOTION_DOT = .5014457E-1
MEAN_MOTION_DDOT = .5752334E-5

CCSDS_OMM_VERS = 2.0
CREATION_DATE  = 
ORIGINATOR     = 

OBJECT_NAME    = ELECTRON R/B
OBJECT_ID      = 2025-297A
CENTER_NAME    = EARTH
REF_FRAME      = TEME
TIME_SYSTEM    = UTC
MEAN_ELEMENT_THEORY = SGP/SGP4

EPOCH          = 2025-12-17T20:15:20.346336
MEAN_MOTION    = 15.82324265
ECCENTRICITY   = .02210738
INCLINATION    = 97.4774
RA_OF_ASC_NODE = 139.6405
ARG_OF_PERICENTER = 213.9823
MEAN_ANOMALY   = 144.7123

EPHEMERIS_TYPE = 0
CLASSIFICATION_TYPE = U
NORAD_CAT_ID   = 67072
ELEMENT_SET_NO = 999
REV_AT_EPOCH   = 59
BSTAR          = .1360344E-2
MEAN_MOTION_DOT = .2084429E-1
MEAN_MOTION_DDOT = .2229165E-5

CCSDS_OMM_VERS = 2.0
CREATION_DATE  = 
ORIGINATOR     = 

OBJECT_NAME    = RAISE-4
OBJECT_ID      = 2025-297B
CENTER_NAME    = EARTH
REF_FRAME      = TEME
TIME_SYSTEM    = UTC
MEAN_ELEMENT_THEORY = SGP/SGP4

EPOCH          = 2025-12-17T21:03:50.859072
MEAN_MOTION    = 15.07167685
ECCENTRICITY   = .00115155
INCLINATION    = 97.4852
RA_OF_ASC_NODE = 139.2886
ARG_OF_PERICENTER = 302.1913
MEAN_ANOMALY   = 57.8198

EPHEMERIS_TYPE = 0
CLASSIFICATION_TYPE = U
NORAD_CAT_ID   = 67073
ELEMENT_SET_NO = 999
REV_AT_EPOCH   = 56
BSTAR          = .25488881E-3
MEAN_MOTION_DOT = .3778E-4
MEAN_MOTION_DDOT = 0

CCSDS_OMM_VERS = 2.0
CREATION_DATE  = 
ORIGINATOR     = 

OBJECT_NAME    = ELECTRON KICK STAGE R/B
OBJECT_ID      = 2025-297C
CENTER_NAME    = EARTH
REF_FRAME      = TEME
TIME_SYSTEM    = UTC
MEAN_ELEMENT_THEORY = SGP/SGP4

EPOCH          = 2025-12-17T21:26:23.064864
MEAN_MOTION    = 15.55416319
ECCENTRICITY   = .02040079
INCLINATION    = 97.4818
RA_OF_ASC_NODE = 139.5876
ARG_OF_PERICENTER = 250.7721
MEAN_ANOMALY   = 107.1361

EPHEMERIS_TYPE = 0
CLASSIFICATION_TYPE = U
NORAD_CAT_ID   = 67074
ELEMENT_SET_NO = 999
REV_AT_EPOCH   = 58
BSTAR          = .14444803E-2
MEAN_MOTION_DOT = .258168E-2
MEAN_MOTION_DDOT = .19423643E-4

CCSDS_OMM_VERS = 2.0
CREATION_DATE  = 
ORIGINATOR     = 

OBJECT_NAME    = ZIYUAN 3-04 (ZY 3-04)
OBJECT_ID      = 2025-300A
CENTER_NAME    = EARTH
REF_FRAME      = TEME
TIME_SYSTEM    = UTC
MEAN_ELEMENT_THEORY = SGP/SGP4

EPOCH          = 2025-12-16T05:54:33.890112
MEAN_MOTION    = 15.24627585
ECCENTRICITY   = .0011082
INCLINATION    = 97.5012
RA_OF_ASC_NODE = 64.3338
ARG_OF_PERICENTER = 268.6179
MEAN_ANOMALY   = 91.3789

EPHEMERIS_TYPE = 0
CLASSIFICATION_TYPE = U
NORAD_CAT_ID   = 67131
ELEMENT_SET_NO = 999
REV_AT_EPOCH   = 2
BSTAR          = .83268042E-4
MEAN_MOTION_DOT = .1984E-4
MEAN_MOTION_DDOT = 0

